[
    {
        "Altitude(m)": 559724.7319871878,
        "Argument of Periapsis(deg)": 0.0,
        "Eccentricity": 0.0,
        "Inclination(deg)": 53.0,
        "Latitude(deg)": 52.383328494448605,
        "Longitude(deg)": 151.57951126430436,
        "Mean Anomaly(deg)": 81.8182,
        "RAAN(deg)": 175.0,
        "Satellite Name": "Starlink Shell 1 775",
        "Satellite Number": 775,
        "Semi-Major Axis(m)": 6931778.249405717,
        "Time(s)": 0
    },
    {
        "Altitude(m)": 559750.3569111942,
        "Argument of Periapsis(deg)": 0.00034857847951123687,
        "Eccentricity": 0.0,
        "Inclination(deg)": 53.0,
        "Latitude(deg)": 52.49551896034898,
        "Longitude(deg)": 152.54713509659808,
        "Mean Anomaly(deg)": 82.44503120355678,
        "RAAN(deg)": 174.99948122992254,
        "Satellite Name": "Starlink Shell 1 775",
        "Satellite Number": 775,
        "Semi-Major Axis(m)": 6931778.249405717,
        "Time(s)": 10
    },
    {
        "Altitude(m)": 559774.0023908934,
        "Argument of Periapsis(deg)": 0.0006971569590224737,
        "Eccentricity": 0.0,
        "Inclination(deg)": 53.0,
        "Latitude(deg)": 52.59906671501373,
        "Longitude(deg)": 153.51970468410397,
        "Mean Anomaly(deg)": 83.07186240711343,
        "RAAN(deg)": 174.99896245984505,
        "Satellite Name": "Starlink Shell 1 775",
        "Satellite Number": 775,
        "Semi-Major Axis(m)": 6931778.249405717,
        "Time(s)": 20
    },
    {
        "Altitude(m)": 559795.6542456876,
        "Argument of Periapsis(deg)": 0.0010457354385337105,
        "Eccentricity": 0.0,
        "Inclination(deg)": 53.0,
        "Latitude(deg)": 52.693899044445594,
        "Longitude(deg)": 154.4968605583639,
        "Mean Anomaly(deg)": 83.6986936106702,
        "RAAN(deg)": 174.99844368976758,
        "Satellite Name": "Starlink Shell 1 775",
        "Satellite Number": 775,
        "Semi-Major Axis(m)": 6931778.249405717,
        "Time(s)": 30
    },
    {
        "Altitude(m)": 559815.2994991449,
        "Argument of Periapsis(deg)": 0.0013943139180449475,
        "Eccentricity": 0.0,
        "Inclination(deg)": 53.0,
        "Latitude(deg)": 52.779948650426945,
        "Longitude(deg)": 155.47823110662517,
        "Mean Anomaly(deg)": 84.32552481422682,
        "RAAN(deg)": 174.99792491969012,
        "Satellite Name": "Starlink Shell 1 775",
        "Satellite Number": 775,
        "Semi-Major Axis(m)": 6931778.249405717,
        "Time(s)": 40
    },
    {
        "Altitude(m)": 559832.9263853475,
        "Argument of Periapsis(deg)": 0.0017428923975561844,
        "Eccentricity": 0.0,
        "Inclination(deg)": 53.0,
        "Latitude(deg)": 52.85715387719434,
        "Longitude(deg)": 156.46343240928363,
        "Mean Anomaly(deg)": 84.95235601778361,
        "RAAN(deg)": 174.99740614961263,
        "Satellite Name": "Starlink Shell 1 775",
        "Satellite Number": 775,
        "Semi-Major Axis(m)": 6931778.249405717,
        "Time(s)": 50
    },
    {
        "Altitude(m)": 559848.5243545962,
        "Argument of Periapsis(deg)": 0.002091470877067421,
        "Eccentricity": 0.0,
        "Inclination(deg)": 53.0,
        "Latitude(deg)": 52.92545892259195,
        "Longitude(deg)": 157.45206966856605,
        "Mean Anomaly(deg)": 85.57918722134033,
        "RAAN(deg)": 174.99688737953517,
        "Satellite Name": "Starlink Shell 1 775",
        "Satellite Number": 775,
        "Semi-Major Axis(m)": 6931778.249405717,
        "Time(s)": 60
    },
    {
        "Altitude(m)": 559862.0840785642,
        "Argument of Periapsis(deg)": 0.0024400493565786582,
        "Eccentricity": 0.0,
        "Inclination(deg)": 53.0,
        "Latitude(deg)": 52.984814032064,
        "Longitude(deg)": 158.44373871099123,
        "Mean Anomaly(deg)": 86.206018424897,
        "RAAN(deg)": 174.9963686094577,
        "Satellite Name": "Starlink Shell 1 775",
        "Satellite Number": 775,
        "Semi-Major Axis(m)": 6931778.249405717,
        "Time(s)": 70
    },
    {
        "Altitude(m)": 559873.5974548323,
        "Argument of Periapsis(deg)": 0.002788627836089895,
        "Eccentricity": 0.0,
        "Inclination(deg)": 53.0,
        "Latitude(deg)": 53.035175673946924,
        "Longitude(deg)": 159.43802604523597,
        "Mean Anomaly(deg)": 86.83284962845376,
        "RAAN(deg)": 174.9958498393802,
        "Satellite Name": "Starlink Shell 1 775",
        "Satellite Number": 775,
        "Semi-Major Axis(m)": 6931778.249405717,
        "Time(s)": 80
    },
    {
        "Altitude(m)": 559883.0576108389,
        "Argument of Periapsis(deg)": 0.0031372063156011316,
        "Eccentricity": 0.0,
        "Inclination(deg)": 53.0,
        "Latitude(deg)": 53.07650669463628,
        "Longitude(deg)": 160.43451049480026,
        "Mean Anomaly(deg)": 87.45968083201042,
        "RAAN(deg)": 174.99533106930275,
        "Satellite Name": "Starlink Shell 1 775",
        "Satellite Number": 775,
        "Semi-Major Axis(m)": 6931778.249405717,
        "Time(s)": 90
    },
    {
        "Altitude(m)": 559890.4589072135,
        "Argument of Periapsis(deg)": 0.0034857847951123688,
        "Eccentricity": 0.0,
        "Inclination(deg)": 53.0,
        "Latitude(deg)": 53.10877645235272,
        "Longitude(deg)": 161.4327648854466,
        "Mean Anomaly(deg)": 88.08651203556714,
        "RAAN(deg)": 174.9948122992253,
        "Satellite Name": "Starlink Shell 1 775",
        "Satellite Number": 775,
        "Semi-Major Axis(m)": 6931778.249405717,
        "Time(s)": 100
    },
    {
        "Altitude(m)": 559895.7969405261,
        "Argument of Periapsis(deg)": 0.003834363274623606,
        "Eccentricity": 0.0,
        "Inclination(deg)": 53.0,
        "Latitude(deg)": 53.13196092839195,
        "Longitude(deg)": 162.4323562666633,
        "Mean Anomaly(deg)": 88.71334323912389,
        "RAAN(deg)": 174.9942935291478,
        "Satellite Name": "Starlink Shell 1 775",
        "Satellite Number": 775,
        "Semi-Major Axis(m)": 6931778.249405717,
        "Time(s)": 110
    },
    {
        "Altitude(m)": 559899.0685454295,
        "Argument of Periapsis(deg)": 0.004182941754134842,
        "Eccentricity": 0.0,
        "Inclination(deg)": 53.0,
        "Latitude(deg)": 53.146042814913066,
        "Longitude(deg)": 163.43284768440705,
        "Mean Anomaly(deg)": 89.34017444268055,
        "RAAN(deg)": 174.99377475907033,
        "Satellite Name": "Starlink Shell 1 775",
        "Satellite Number": 775,
        "Semi-Major Axis(m)": 6931778.249405717,
        "Time(s)": 120
    },
    {
        "Altitude(m)": 559900.2717961905,
        "Argument of Periapsis(deg)": 0.004531520233646079,
        "Eccentricity": 0.0,
        "Inclination(deg)": 53.0,
        "Latitude(deg)": 53.15101157851869,
        "Longitude(deg)": 164.43379998323098,
        "Mean Anomaly(deg)": 89.96700564623733,
        "RAAN(deg)": 174.99325598899287,
        "Satellite Name": "Starlink Shell 1 775",
        "Satellite Number": 775,
        "Semi-Major Axis(m)": 6931778.249405717,
        "Time(s)": 130
    },
    {
        "Altitude(m)": 559899.4060076347,
        "Argument of Periapsis(deg)": 0.0048800987131573164,
        "Eccentricity": 0.0,
        "Inclination(deg)": 53.0,
        "Latitude(deg)": 53.14686349908332,
        "Longitude(deg)": 165.434772115508,
        "Mean Anomaly(deg)": 90.59383684979403,
        "RAAN(deg)": 174.99273721891538,
        "Satellite Name": "Starlink Shell 1 775",
        "Satellite Number": 775,
        "Semi-Major Axis(m)": 6931778.249405717,
        "Time(s)": 140
    },
    {
        "Altitude(m)": 559896.4717354616,
        "Argument of Periapsis(deg)": 0.005228677192668553,
        "Eccentricity": 0.0,
        "Inclination(deg)": 53.0,
        "Latitude(deg)": 53.13360168348899,
        "Longitude(deg)": 166.4353229738059,
        "Mean Anomaly(deg)": 91.22066805335074,
        "RAAN(deg)": 174.99221844883792,
        "Satellite Name": "Starlink Shell 1 775",
        "Satellite Number": 775,
        "Semi-Major Axis(m)": 6931778.249405717,
        "Time(s)": 150
    },
    {
        "Altitude(m)": 559891.4707759827,
        "Argument of Periapsis(deg)": 0.00557725567217979,
        "Eccentricity": 0.0,
        "Inclination(deg)": 53.0,
        "Latitude(deg)": 53.111236054152535,
        "Longitude(deg)": 167.4350132237061,
        "Mean Anomaly(deg)": 91.84749925690747,
        "RAAN(deg)": 174.99169967876045,
        "Satellite Name": "Starlink Shell 1 775",
        "Satellite Number": 775,
        "Semi-Major Axis(m)": 6931778.249405717,
        "Time(s)": 160
    },
    {
        "Altitude(m)": 559884.4061652385,
        "Argument of Periapsis(deg)": 0.0059258341516910265,
        "Eccentricity": 0.0,
        "Inclination(deg)": 53.0,
        "Latitude(deg)": 53.079783312445635,
        "Longitude(deg)": 168.43340561435022,
        "Mean Anomaly(deg)": 92.47433046046417,
        "RAAN(deg)": 174.99118090868296,
        "Satellite Name": "Starlink Shell 1 775",
        "Satellite Number": 775,
        "Semi-Major Axis(m)": 6931778.249405717,
        "Time(s)": 170
    },
    {
        "Altitude(m)": 559875.2821775138,
        "Argument of Periapsis(deg)": 0.006274412631202263,
        "Eccentricity": 0.0,
        "Inclination(deg)": 53.0,
        "Latitude(deg)": 53.03926687731933,
        "Longitude(deg)": 169.43006678275535,
        "Mean Anomaly(deg)": 93.10116166402088,
        "RAAN(deg)": 174.9906621386055,
        "Satellite Name": "Starlink Shell 1 775",
        "Satellite Number": 775,
        "Semi-Major Axis(m)": 6931778.249405717,
        "Time(s)": 180
    }
]